NAVSTAR 77 (USA 289)    
1 43873U 18109A   24006.78908965  .00000018  00000+0  00000+0 0  9995
2 43873  55.2371 127.4473 0028280 191.6889 339.1630  2.00572674 37176
